NORAD_CAT_ID,OBJECT_NAME,OBJECT_TYPE,EPOCH,MEAN_MOTION,ECCENTRICITY,INCLINATION,RA_OF_ASC_NODE,ARG_OF_PERICENTER,MEAN_ANOMALY,BSTAR,MEAN_MOTION_DOT,MEAN_MOTION_DDOT,TLE_LINE0,TLE_LINE1,TLE_LINE2,SEMIMAJOR_AXIS,PERIOD,APOGEE,PERIGEE,DECAYED
53429.0,STARLINK-4543,PAYLOAD,2023-01-16 19:48:27,15.08840664,0.0001423,53.216,217.1959,86.6386,273.4769,0.00013187,1.811e-05,0.0,0 STARLINK-4543,1 53429U 22097AT  23016.82532240  .00001811  00000-0  13187-3 0  9995,2 53429  53.2160 217.1959 0001423  86.6386 273.4769 15.08840664 25011,6917.878000000001,95.438,540.7280000000001,538.759,0.0
53429.0,STARLINK-4543,PAYLOAD,2023-01-17 13:17:42,15.08839473,0.0001228,53.2154,213.9253,84.5735,275.5397,8.395299999999999e-05,1.048e-05,0.0,0 STARLINK-4543,1 53429U 22097AT  23017.55396376  .00001048  00000-0  83953-4 0  9995,2 53429  53.2154 213.9253 0001228  84.5735 275.5397 15.08839473 25604,6917.882,95.438,540.597,538.8969999999999,0.0
53429.0,STARLINK-4543,PAYLOAD,2023-01-17 19:39:14,15.08842769,0.0001205999999999,53.2148,212.7344,89.1665,270.9465,0.00013868,1.92e-05,0.0,0 STARLINK-4543,1 53429U 22097AT  23017.81892186  .00001920  00000-0  13868-3 0  9990,2 53429  53.2148 212.7344 0001206  89.1665 270.9465 15.08842769 25645,6917.871999999999,95.437,540.571,538.903,0.0
53429.0,STARLINK-4543,PAYLOAD,2023-01-17 22:50:00,15.08845185,0.0001177,53.2147,212.1397,88.9818,271.1309,5.443e-05,5.79e-06,0.0,0 STARLINK-4543,1 53429U 22097AT  23017.95139974  .00000579  00000-0  54430-4 0  9994,2 53429  53.2147 212.1397 0001177  88.9818 271.1309 15.08845185 25184,6917.865,95.437,540.544,538.915,0.0
53429.0,STARLINK-4543,PAYLOAD,2023-01-18 13:08:29,15.08842585,0.0001227,53.2143,209.4631,94.5624,265.5509,0.00017952,2.571e-05,0.0,0 STARLINK-4543,1 53429U 22097AT  23018.54756178  .00002571  00000-0  17952-3 0  9992,2 53429  53.2143 209.4631 0001227  94.5624 265.5509 15.08842585 25757,6917.871999999999,95.437,540.586,538.889,0.0
53429.0,STARLINK-4543,PAYLOAD,2023-01-18 19:30:01,15.08848226,0.0001193,53.2144,208.2738,93.1081,267.0048,0.00023666,3.481e-05,0.0,0 STARLINK-4543,1 53429U 22097AT  23018.81251845  .00003481  00000-0  23666-3 0  9993,2 53429  53.2144 208.2738 0001193  93.1081 267.0048 15.08848226 25794,6917.855,95.437,540.5459999999999,538.895,0.0
53429.0,STARLINK-4543,PAYLOAD,2023-01-19 05:02:20,15.08842416,0.0001088999999999,53.214,206.4879,85.6986,274.4131,0.00011373,1.523e-05,0.0,0 STARLINK-4543,1 53429U 22097AT  23019.20996016  .00001523  00000-0  11373-3 0  9990,2 53429  53.2140 206.4879 0001089  85.6986 274.4131 15.08842416 25374,6917.8730000000005,95.437,540.491,538.985,0.0
53429.0,STARLINK-4543,PAYLOAD,2023-01-19 12:59:16,15.08837042,0.000128,53.214,205.0019,92.2719,267.842,4.6047e-05,4.45e-06,0.0,0 STARLINK-4543,1 53429U 22097AT  23019.54116374  .00000445  00000-0  46047-4 0  9997,2 53429  53.2140 205.0019 0001280  92.2719 267.8420 15.08837042 25901,6917.889,95.438,540.64,538.869,0.0
53429.0,STARLINK-4543,PAYLOAD,2023-01-19 19:20:49,15.08838469,0.0001217,53.2147,203.8139,98.3422,261.7708,5.6065e-05,6.04e-06,0.0,0 STARLINK-4543,1 53429U 22097AT  23019.80612327  .00000604  00000-0  56065-4 0  9993,2 53429  53.2147 203.8139 0001217  98.3422 261.7708 15.08838469 25462,6917.885,95.438,540.592,538.908,0.0
53429.0,STARLINK-4543,PAYLOAD,2023-01-20 11:14:40,15.08838989,0.0001060999999999,53.215,200.8397,93.0627,267.0487,5.7535e-05,6.28e-06,0.0,0 STARLINK-4543,1 53429U 22097AT  23020.46852299  .00000628  00000-0  57535-4 0  9990,2 53429  53.2150 200.8397 0001061  93.0627 267.0487 15.08838989 26040,6917.883000000001,95.438,540.482,539.014,0.0
53429.0,STARLINK-4543,PAYLOAD,2023-01-20 22:22:22,15.08845745,0.000107,53.215,198.7576,92.0447,268.0668,0.00012517,1.705e-05,0.0,0 STARLINK-4543,1 53429U 22097AT  23020.93220013  .00001705  00000-0  12517-3 0  9992,2 53429  53.2150 198.7576 0001070  92.0447 268.0668 15.08845745 25637,6917.863,95.437,540.4680000000001,538.988,0.0
53429.0,STARLINK-4543,PAYLOAD,2023-01-21 11:05:27,15.088398000000002,0.0001095999999999,53.2149,196.3782,93.405,266.7067,0.00015934,2.249e-05,0.0,0 STARLINK-4543,1 53429U 22097AT  23021.46212426  .00002249  00000-0  15934-3 0  9990,2 53429  53.2149 196.3782 0001096  93.4050 266.7067 15.08839800 25713,6917.880999999999,95.438,540.504,538.988,0.0
53429.0,STARLINK-4543,PAYLOAD,2023-01-22 12:31:37,15.08838997,0.0001141,53.2154,191.6211,81.4628,278.6493,8.623100000000001e-05,1.085e-05,0.0,0 STARLINK-4543,1 53429U 22097AT  23022.52196532  .00001085  00000-0  86231-4 0  9993,2 53429  53.2154 191.6211 0001141  81.4628 278.6493 15.08838997 25871,6917.883000000001,95.438,540.538,538.9590000000001,0.0
53429.0,STARLINK-4543,PAYLOAD,2023-01-23 17:08:34,15.0884456,0.0001027,53.2165,186.269,68.0784,292.0317,0.00014031,1.946e-05,0.0,0 STARLINK-4543,1 53429U 22097AT  23023.71428382  .00001946  00000-0  14031-3 0  9990,2 53429  53.2165 186.2690 0001027  68.0784 292.0317 15.08844560 26050,6917.866,95.437,540.442,539.021,0.0
53429.0,STARLINK-4543,PAYLOAD,2023-01-24 13:48:35,15.08837131,0.0001163,53.2161,182.402,92.3187,267.7938,9.0321e-05,1.15e-05,0.0,0 STARLINK-4543,1 53429U 22097AT  23024.57540809  .00001150  00000-0  90321-4 0  9998,2 53429  53.2161 182.4020 0001163  92.3187 267.7938 15.08837131 26187,6917.889,95.438,540.559,538.95,0.0
53429.0,STARLINK-4543,PAYLOAD,2023-01-25 13:39:22,15.08833759,0.000103,53.217,177.9417,94.6794,265.4316,7.0357e-05,8.32e-06,0.0,0 STARLINK-4543,1 53429U 22097AT  23025.56901190  .00000832  00000-0  70357-4 0  9995,2 53429  53.2170 177.9417 0001030  94.6794 265.4316 15.08833759 26815,6917.899,95.438,540.477,539.052,0.0
53429.0,STARLINK-4543,PAYLOAD,2023-01-25 15:14:45,15.08836925,0.0001064,53.2172,177.6455,89.083,271.0285,7.5475e-05,9.14e-06,0.0,0 STARLINK-4543,1 53429U 22097AT  23025.63525010  .00000914  00000-0  75475-4 0  9993,2 53429  53.2172 177.6455 0001064  89.0830 271.0285 15.08836925 26346,6917.89,95.438,540.491,539.019,0.0
53429.0,STARLINK-4543,PAYLOAD,2023-01-25 16:50:08,15.08838429,0.0001019,53.2173,177.3483,88.7783,271.3326,8.2191e-05,1.02e-05,0.0,0 STARLINK-4543,1 53429U 22097AT  23025.70148917  .00001020  00000-0  82191-4 0  9990,2 53429  53.2173 177.3483 0001019  88.7783 271.3326 15.08838429 26832,6917.885,95.438,540.455,539.045,0.0
53429.0,STARLINK-4543,PAYLOAD,2023-01-26 02:22:26,15.08861513,0.0001082,53.2172,175.5641,94.3038,265.8078,-0.00024288,-4.153e-05,0.0,0 STARLINK-4543,1 53429U 22097AT  23026.09891944 -.00004153  00000-0 -24288-3 0  9992,2 53429  53.2172 175.5641 0001082  94.3038 265.8078 15.08861513 26419,6917.815,95.436,540.428,538.931,0.0
53429.0,STARLINK-4543,PAYLOAD,2023-01-26 13:30:09,15.08840893,0.000107,53.2173,173.4827,91.548,268.5634,0.00014616,2.039e-05,0.0,0 STARLINK-4543,1 53429U 22097AT  23026.56260765  .00002039  00000-0  14616-3 0  9998,2 53429  53.2173 173.4827 0001070  91.5480 268.5634 15.08840893 26966,6917.878000000001,95.437,540.4830000000001,539.002,0.0
53429.0,STARLINK-4543,PAYLOAD,2023-01-26 15:05:32,15.08842761,0.0001079,53.2173,173.1853,91.3858,268.7258,0.00016174,2.287e-05,0.0,0 STARLINK-4543,1 53429U 22097AT  23026.62884636  .00002287  00000-0  16174-3 0  9990,2 53429  53.2173 173.1853 0001079  91.3858 268.7258 15.08842761 26496,6917.871999999999,95.437,540.4830000000001,538.991,0.0
53429.0,STARLINK-4543,PAYLOAD,2023-01-27 13:20:56,15.08839781,0.0001093,53.2172,169.0223,89.9481,270.1637,0.00013793,1.908e-05,0.0,0 STARLINK-4543,1 53429U 22097AT  23027.55620867  .00001908  00000-0  13793-3 0  9990,2 53429  53.2172 169.0223 0001093  89.9481 270.1637 15.08839781 27117,6917.880999999999,95.438,540.502,538.99,0.0
53429.0,STARLINK-4543,PAYLOAD,2023-01-27 14:56:19,15.08840547,0.0001091,53.2172,168.725,89.6936,270.4181,0.00014353,1.997e-05,0.0,0 STARLINK-4543,1 53429U 22097AT  23027.62244827  .00001997  00000-0  14353-3 0  9997,2 53429  53.2172 168.7250 0001091  89.6936 270.4181 15.08840547 26649,6917.879,95.438,540.498,538.989,0.0
53429.0,STARLINK-4543,PAYLOAD,2023-01-28 13:11:44,15.08832155,0.0001118,53.217,164.5631,93.4277,266.6843,3.6736e-05,2.97e-06,0.0,0 STARLINK-4543,1 53429U 22097AT  23028.54981636  .00000297  00000-0  36736-4 0  9997,2 53429  53.2170 164.5631 0001118  93.4277 266.6843 15.08832155 26788,6917.904,95.438,540.543,538.996,0.0
53429.0,STARLINK-4543,PAYLOAD,2023-01-28 16:22:29,15.08841541,0.0001268,53.2187,163.9682,94.5823,265.5314,1.4495e-05,-5.7e-07,0.0,0 STARLINK-4543,1 53429U 22097AT  23028.68229052 -.00000057  00000-0  14495-4 0  9992,2 53429  53.2187 163.9682 0001268  94.5823 265.5314 15.08841541 26803,6917.876,95.437,540.618,538.863,0.0
53429.0,STARLINK-4543,PAYLOAD,2023-01-29 13:02:31,15.08835148,0.0001487,53.2185,160.1022,76.9632,283.1526,5.5446e-05,5.94e-06,0.0,0 STARLINK-4543,1 53429U 22097AT  23029.54341533  .00000594  00000-0  55446-4 0  9993,2 53429  53.2185 160.1022 0001487  76.9632 283.1526 15.08835148 26934,6917.895,95.438,540.789,538.732,0.0
53429.0,STARLINK-4543,PAYLOAD,2023-01-29 17:48:40,15.08838672,0.0001272,53.2179,159.2096,76.6063,283.5071,5.5235e-05,5.91e-06,0.0,0 STARLINK-4543,1 53429U 22097AT  23029.74213321  .00000591  00000-0  55235-4 0  9991,2 53429  53.2179 159.2096 0001272  76.6063 283.5071 15.08838672 27445,6917.884,95.438,540.629,538.869,0.0
53429.0,STARLINK-4543,PAYLOAD,2023-01-30 08:07:08,15.08833934,0.0001302,53.2175,156.5334,85.3046,274.8095,6.9311e-05,8.15e-06,0.0,0 STARLINK-4543,1 53429U 22097AT  23030.33829738  .00000815  00000-0  69311-4 0  9992,2 53429  53.2175 156.5334 0001302  85.3046 274.8095 15.08833934 27533,6917.899,95.438,540.665,538.863,0.0
53429.0,STARLINK-4543,PAYLOAD,2023-01-30 16:04:04,15.08839869,0.0001318,53.2171,155.0472,72.238,287.8756,9.4535e-05,1.217e-05,0.0,0 STARLINK-4543,1 53429U 22097AT  23030.66949396  .00001217  00000-0  94535-4 0  9994,2 53429  53.2171 155.0472 0001318  72.2380 287.8756 15.08839869 27103,6917.881,95.438,540.658,538.834,0.0
